[{"OBJECT_NAME":"ONEWEB-0315","OBJECT_ID":"2021-075AC","EPOCH":"2025-10-20T06:59:06.199872","MEAN_MOTION":13.12443461,"ECCENTRICITY":0.00014671,"INCLINATION":87.8959,"RA_OF_ASC_NODE":38.2964,"ARG_OF_PERICENTER":86.7335,"MEAN_ANOMALY":273.3961,"EPHEMERIS_TYPE":0,"CLASSIFICATION_TYPE":"U","NORAD_CAT_ID":49101,"ELEMENT_SET_NO":999,"REV_AT_EPOCH":20370,"BSTAR":0.0014086064,"MEAN_MOTION_DOT":5.19e-6,"MEAN_MOTION_DDOT":0},{"OBJECT_NAME":"ONEWEB-0316","OBJECT_ID":"2021-075AD","EPOCH":"2025-10-20T07:31:05.682144","MEAN_MOTION":13.18686465,"ECCENTRICITY":0.00018278,"INCLINATION":87.9228,"RA_OF_ASC_NODE":23.1055,"ARG_OF_PERICENTER":101.7372,"MEAN_ANOMALY":258.3965,"EPHEMERIS_TYPE":0,"CLASSIFICATION_TYPE":"U","NORAD_CAT_ID":49102,"ELEMENT_SET_NO":999,"REV_AT_EPOCH":20559,"BSTAR":0.00031358481,"MEAN_MOTION_DOT":1.37e-6,"MEAN_MOTION_DDOT":0},{"OBJECT_NAME":"ONEWEB-0317","OBJECT_ID":"2021-075AE","EPOCH":"2025-10-20T06:49:45.873408","MEAN_MOTION":13.12443524,"ECCENTRICITY":0.000243,"INCLINATION":87.8963,"RA_OF_ASC_NODE":38.314,"ARG_OF_PERICENTER":112.3219,"MEAN_ANOMALY":247.8167,"EPHEMERIS_TYPE":0,"CLASSIFICATION_TYPE":"U","NORAD_CAT_ID":49103,"ELEMENT_SET_NO":999,"REV_AT_EPOCH":20372,"BSTAR":0.001330946,"MEAN_MOTION_DOT":4.92e-6,"MEAN_MOTION_DDOT":0},{"OBJECT_NAME":"ONEWEB-0318","OBJECT_ID":"2021-075AF","EPOCH":"2025-10-20T07:26:19.912416","MEAN_MOTION":13.18685588,"ECCENTRICITY":0.0001691,"INCLINATION":87.923,"RA_OF_ASC_NODE":23.0924,"ARG_OF_PERICENTER":94.0888,"MEAN_ANOMALY":266.0438,"EPHEMERIS_TYPE":0,"CLASSIFICATION_TYPE":"U","NORAD_CAT_ID":49104,"ELEMENT_SET_NO":999,"REV_AT_EPOCH":20555,"BSTAR":3.1228651e-5,"MEAN_MOTION_DOT":2.5e-7,"MEAN_MOTION_DDOT":0},{"OBJECT_NAME":"ONEWEB-0319","OBJECT_ID":"2021-075AG","EPOCH":"2025-10-20T06:59:06.688032","MEAN_MOTION":13.17648176,"ECCENTRICITY":0.00015903,"INCLINATION":87.9106,"RA_OF_ASC_NODE":53.5799,"ARG_OF_PERICENTER":83.8364,"MEAN_ANOMALY":276.2948,"EPHEMERIS_TYPE":0,"CLASSIFICATION_TYPE":"U","NORAD_CAT_ID":49105,"ELEMENT_SET_NO":999,"REV_AT_EPOCH":20201,"BSTAR":3.0403094e-5,"MEAN_MOTION_DOT":2.5e-7,"MEAN_MOTION_DDOT":0},{"OBJECT_NAME":"ONEWEB-0323","OBJECT_ID":"2021-075AH","EPOCH":"2025-10-20T06:35:44.204352","MEAN_MOTION":13.12445342,"ECCENTRICITY":0.00016887,"INCLINATION":87.8965,"RA_OF_ASC_NODE":38.3024,"ARG_OF_PERICENTER":76.9253,"MEAN_ANOMALY":283.2064,"EPHEMERIS_TYPE":0,"CLASSIFICATION_TYPE":"U","NORAD_CAT_ID":49106,"ELEMENT_SET_NO":999,"REV_AT_EPOCH":20308,"BSTAR":0.00088888292,"MEAN_MOTION_DOT":3.33e-6,"MEAN_MOTION_DDOT":0},{"OBJECT_NAME":"ONEWEB-0329","OBJECT_ID":"2021-075AJ","EPOCH":"2025-10-20T07:11:16.431072","MEAN_MOTION":13.17650205,"ECCENTRICITY":0.00017574,"INCLINATION":87.9105,"RA_OF_ASC_NODE":53.5811,"ARG_OF_PERICENTER":94.967,"MEAN_ANOMALY":265.1662,"EPHEMERIS_TYPE":0,"CLASSIFICATION_TYPE":"U","NORAD_CAT_ID":49107,"ELEMENT_SET_NO":999,"REV_AT_EPOCH":20199,"BSTAR":9.7305322e-5,"MEAN_MOTION_DOT":5.1e-7,"MEAN_MOTION_DDOT":0},{"OBJECT_NAME":"ONEWEB-0330","OBJECT_ID":"2021-075AK","EPOCH":"2025-10-20T07:12:27.042336","MEAN_MOTION":13.17648247,"ECCENTRICITY":0.00018903,"INCLINATION":87.9105,"RA_OF_ASC_NODE":53.5857,"ARG_OF_PERICENTER":95.5014,"MEAN_ANOMALY":264.6333,"EPHEMERIS_TYPE":0,"CLASSIFICATION_TYPE":"U","NORAD_CAT_ID":49108,"ELEMENT_SET_NO":999,"REV_AT_EPOCH":20203,"BSTAR":-0.00073136786,"MEAN_MOTION_DOT":-2.71e-6,"MEAN_MOTION_DDOT":0},{"OBJECT_NAME":"ONEWEB-0292","OBJECT_ID":"2021-083A","EPOCH":"2025-10-20T06:46:31.466496","MEAN_MOTION":13.13471392,"ECCENTRICITY":0.00017108,"INCLINATION":87.904,"RA_OF_ASC_NODE":7.9401,"ARG_OF_PERICENTER":96.1928,"MEAN_ANOMALY":263.9396,"EPHEMERIS_TYPE":0,"CLASSIFICATION_TYPE":"U","NORAD_CAT_ID":49186,"ELEMENT_SET_NO":999,"REV_AT_EPOCH":19943,"BSTAR":0.0010128735,"MEAN_MOTION_DOT":3.83e-6,"MEAN_MOTION_DDOT":0},{"OBJECT_NAME":"ONEWEB-0303","OBJECT_ID":"2021-083B","EPOCH":"2025-10-20T07:21:34.987680","MEAN_MOTION":13.18684834,"ECCENTRICITY":0.00017249,"INCLINATION":87.9232,"RA_OF_ASC_NODE":23.0938,"ARG_OF_PERICENTER":95.3575,"MEAN_ANOMALY":264.7754,"EPHEMERIS_TYPE":0,"CLASSIFICATION_TYPE":"U","NORAD_CAT_ID":49187,"ELEMENT_SET_NO":999,"REV_AT_EPOCH":19836,"BSTAR":3.0151632e-5,"MEAN_MOTION_DOT":2.5e-7,"MEAN_MOTION_DDOT":0},{"OBJECT_NAME":"ONEWEB-0306","OBJECT_ID":"2021-083C","EPOCH":"2025-10-20T07:07:19.994016","MEAN_MOTION":13.18684613,"ECCENTRICITY":0.00019381,"INCLINATION":87.9229,"RA_OF_ASC_NODE":23.081,"ARG_OF_PERICENTER":106.0398,"MEAN_ANOMALY":254.0948,"EPHEMERIS_TYPE":0,"CLASSIFICATION_TYPE":"U","NORAD_CAT_ID":49188,"ELEMENT_SET_NO":999,"REV_AT_EPOCH":19840,"BSTAR":0.00011703541,"MEAN_MOTION_DOT":5.9e-7,"MEAN_MOTION_DDOT":0},{"OBJECT_NAME":"ONEWEB-0307","OBJECT_ID":"2021-083D","EPOCH":"2025-10-20T06:37:59.883456","MEAN_MOTION":13.13468903,"ECCENTRICITY":0.00017918,"INCLINATION":87.9029,"RA_OF_ASC_NODE":7.9352,"ARG_OF_PERICENTER":99.7029,"MEAN_ANOMALY":260.4303,"EPHEMERIS_TYPE":0,"CLASSIFICATION_TYPE":"U","NORAD_CAT_ID":49189,"ELEMENT_SET_NO":999,"REV_AT_EPOCH":19943,"BSTAR":0.00092244126,"MEAN_MOTION_DOT":3.5e-6,"MEAN_MOTION_DDOT":0},{"OBJECT_NAME":"ONEWEB-0320","OBJECT_ID":"2021-083E","EPOCH":"2025-10-20T07:16:55.182144","MEAN_MOTION":13.18686109,"ECCENTRICITY":0.0001821,"INCLINATION":87.9233,"RA_OF_ASC_NODE":23.1082,"ARG_OF_PERICENTER":101.2711,"MEAN_ANOMALY":258.8626,"EPHEMERIS_TYPE":0,"CLASSIFICATION_TYPE":"U","NORAD_CAT_ID":49190,"ELEMENT_SET_NO":999,"REV_AT_EPOCH":19836,"BSTAR":-9.844875e-6,"MEAN_MOTION_DOT":9.0e-8,"MEAN_MOTION_DDOT":0},{"OBJECT_NAME":"ONEWEB-0321","OBJECT_ID":"2021-083F","EPOCH":"2025-10-20T01:14:45.065472","MEAN_MOTION":13.20770533,"ECCENTRICITY":0.00020772,"INCLINATION":87.9212,"RA_OF_ASC_NODE":322.3237,"ARG_OF_PERICENTER":102.3984,"MEAN_ANOMALY":257.7382,"EPHEMERIS_TYPE":0,"CLASSIFICATION_TYPE":"U","NORAD_CAT_ID":49191,"ELEMENT_SET_NO":999,"REV_AT_EPOCH":20513,"BSTAR":-0.00060307333,"MEAN_MOTION_DOT":-2.32e-6,"MEAN_MOTION_DDOT":0},{"OBJECT_NAME":"ONEWEB-0322","OBJECT_ID":"2021-083G","EPOCH":"2025-10-20T06:31:54.494400","MEAN_MOTION":13.13471259,"ECCENTRICITY":0.00019997,"INCLINATION":87.9036,"RA_OF_ASC_NODE":7.936,"ARG_OF_PERICENTER":115.5574,"MEAN_ANOMALY":244.5763,"EPHEMERIS_TYPE":0,"CLASSIFICATION_TYPE":"U","NORAD_CAT_ID":49192,"ELEMENT_SET_NO":999,"REV_AT_EPOCH":19942,"BSTAR":0.00069236212,"MEAN_MOTION_DOT":2.66e-6,"MEAN_MOTION_DDOT":0},{"OBJECT_NAME":"ONEWEB-0324","OBJECT_ID":"2021-083H","EPOCH":"2025-10-20T06:57:49.625280","MEAN_MOTION":13.18684388,"ECCENTRICITY":0.00019569,"INCLINATION":87.9226,"RA_OF_ASC_NODE":23.0895,"ARG_OF_PERICENTER":98.3331,"MEAN_ANOMALY":261.8023,"EPHEMERIS_TYPE":0,"CLASSIFICATION_TYPE":"U","NORAD_CAT_ID":49193,"ELEMENT_SET_NO":999,"REV_AT_EPOCH":19838,"BSTAR":5.3958696e-5,"MEAN_MOTION_DOT":3.4e-7,"MEAN_MOTION_DDOT":0},{"OBJECT_NAME":"ONEWEB-0325","OBJECT_ID":"2021-083J","EPOCH":"2025-10-20T07:02:35.349216","MEAN_MOTION":13.18684476,"ECCENTRICITY":0.00018435,"INCLINATION":87.9231,"RA_OF_ASC_NODE":23.1071,"ARG_OF_PERICENTER":103.7225,"MEAN_ANOMALY":256.4112,"EPHEMERIS_TYPE":0,"CLASSIFICATION_TYPE":"U","NORAD_CAT_ID":49194,"ELEMENT_SET_NO":999,"REV_AT_EPOCH":19839,"BSTAR":-7.429237e-6,"MEAN_MOTION_DOT":1.0e-7,"MEAN_MOTION_DDOT":0},{"OBJECT_NAME":"ONEWEB-0326","OBJECT_ID":"2021-083K","EPOCH":"2025-10-20T07:24:08.452224","MEAN_MOTION":13.18684297,"ECCENTRICITY":0.00015496,"INCLINATION":87.9233,"RA_OF_ASC_NODE":23.0918,"ARG_OF_PERICENTER":92.8423,"MEAN_ANOMALY":267.2887,"EPHEMERIS_TYPE":0,"CLASSIFICATION_TYPE":"U","NORAD_CAT_ID":49195,"ELEMENT_SET_NO":999,"REV_AT_EPOCH":19838,"BSTAR":-4.4808114e-5,"MEAN_MOTION_DOT":-5.0e-8,"MEAN_MOTION_DDOT":0},{"OBJECT_NAME":"ONEWEB-0327","OBJECT_ID":"2021-083L","EPOCH":"2025-10-20T07:23:46.044384","MEAN_MOTION":13.18685191,"ECCENTRICITY":0.00014735,"INCLINATION":87.9224,"RA_OF_ASC_NODE":23.1155,"ARG_OF_PERICENTER":96.2302,"MEAN_ANOMALY":263.8998,"EPHEMERIS_TYPE":0,"CLASSIFICATION_TYPE":"U","NORAD_CAT_ID":49196,"ELEMENT_SET_NO":999,"REV_AT_EPOCH":19840,"BSTAR":-0.00013260359,"MEAN_MOTION_DOT":-3.9e-7,"MEAN_MOTION_DDOT":0},{"OBJECT_NAME":"ONEWEB-0328","OBJECT_ID":"2021-083M","EPOCH":"2025-10-20T06:17:15.871200","MEAN_MOTION":13.13472319,"ECCENTRICITY":0.00019228,"INCLINATION":87.9048,"RA_OF_ASC_NODE":7.879,"ARG_OF_PERICENTER":97.8208,"MEAN_ANOMALY":262.3139,"EPHEMERIS_TYPE":0,"CLASSIFICATION_TYPE":"U","NORAD_CAT_ID":49197,"ELEMENT_SET_NO":999,"REV_AT_EPOCH":19940,"BSTAR":0.00024821023,"MEAN_MOTION_DOT":1.03e-6,"MEAN_MOTION_DDOT":0},{"OBJECT_NAME":"ONEWEB-0331","OBJECT_ID":"2021-083N","EPOCH":"2025-10-20T07:14:27.344832","MEAN_MOTION":13.1868457,"ECCENTRICITY":0.00017619,"INCLINATION":87.9227,"RA_OF_ASC_NODE":23.0855,"ARG_OF_PERICENTER":89.4578,"MEAN_ANOMALY":270.6757,"EPHEMERIS_TYPE":0,"CLASSIFICATION_TYPE":"U","NORAD_CAT_ID":49198,"ELEMENT_SET_NO":999,"REV_AT_EPOCH":19839,"BSTAR":0.00022797905,"MEAN_MOTION_DOT":1.03e-6,"MEAN_MOTION_DDOT":0},{"OBJECT_NAME":"ONEWEB-0333","OBJECT_ID":"2021-083P","EPOCH":"2025-10-20T04:20:16.153728","MEAN_MOTION":13.13470538,"ECCENTRICITY":0.00018051,"INCLINATION":87.9028,"RA_OF_ASC_NODE":7.957,"ARG_OF_PERICENTER":103.1982,"MEAN_ANOMALY":256.9349,"EPHEMERIS_TYPE":0,"CLASSIFICATION_TYPE":"U","NORAD_CAT_ID":49199,"ELEMENT_SET_NO":999,"REV_AT_EPOCH":19940,"BSTAR":-5.3097941e-5,"MEAN_MOTION_DOT":-7.0e-8,"MEAN_MOTION_DDOT":0},{"OBJECT_NAME":"ONEWEB-0334","OBJECT_ID":"2021-083Q","EPOCH":"2025-10-20T03:28:50.221344","MEAN_MOTION":13.20770448,"ECCENTRICITY":0.0002123,"INCLINATION":87.9204,"RA_OF_ASC_NODE":322.3368,"ARG_OF_PERICENTER":123.4396,"MEAN_ANOMALY":236.694,"EPHEMERIS_TYPE":0,"CLASSIFICATION_TYPE":"U","NORAD_CAT_ID":49200,"ELEMENT_SET_NO":999,"REV_AT_EPOCH":20510,"BSTAR":0.00018560136,"MEAN_MOTION_DOT":8.8e-7,"MEAN_MOTION_DDOT":0}]
